NORAD_CAT_ID,OBJECT_NAME,OBJECT_TYPE,EPOCH,MEAN_MOTION,ECCENTRICITY,INCLINATION,RA_OF_ASC_NODE,ARG_OF_PERICENTER,MEAN_ANOMALY,BSTAR,MEAN_MOTION_DOT,MEAN_MOTION_DDOT,TLE_LINE0,TLE_LINE1,TLE_LINE2,SEMIMAJOR_AXIS,PERIOD,APOGEE,PERIGEE,DECAYED
55659.0,STARLINK-5477,PAYLOAD,2024-01-01 10:58:25,14.98330353,0.0002898,69.9995,17.2227,265.9349,94.1479,0.00012173,1.36e-05,0.0,0 STARLINK-5477,1 55659U 23021AH  24001.45723860  .00001360  00000-0  12173-3 0  9997,2 55659  69.9995  17.2227 0002898 265.9349  94.1479 14.98330353 49719,6950.192,96.107,574.071,570.043,0.0
55659.0,STARLINK-5477,PAYLOAD,2024-01-02 02:59:46,14.98329673,0.0002892,69.9997,15.5404,264.3456,95.7373,7.6792e-05,8.23e-06,0.0,0 STARLINK-5477,1 55659U 23021AH  24002.12483897  .00000823  00000-0  76792-4 0  9996,2 55659  69.9997  15.5404 0002892 264.3456  95.7373 14.98329673 49516,6950.194,96.107,574.069,570.049,0.0
55659.0,STARLINK-5477,PAYLOAD,2024-01-02 11:00:26,14.98324512,0.0003025,69.9994,14.6984,266.8738,93.2075,5.2765e-06,-3e-07,0.0,0 STARLINK-5477,1 55659U 23021AH  24002.45864494 -.00000030  00000-0  52765-5 0  9994,2 55659  69.9994  14.6984 0003025 266.8738  93.2075 14.98324512 49569,6950.21,96.107,574.177,569.972,0.0
55659.0,STARLINK-5477,PAYLOAD,2024-01-03 03:01:47,14.98331948,0.0003169,69.9992,13.014,272.8252,87.2545,5.2468e-05,5.33e-06,0.0,0 STARLINK-5477,1 55659U 23021AH  24003.12623938  .00000533  00000-0  52468-4 0  9991,2 55659  69.9992  13.0140 0003169 272.8252  87.2545 14.98331948 49668,6950.187,96.107,574.254,569.849,0.0
55659.0,STARLINK-5477,PAYLOAD,2024-01-03 11:02:27,14.98333914,0.0002713,70.0001,12.1734,263.5967,96.4883,6.5873e-05,6.93e-06,0.0,0 STARLINK-5477,1 55659U 23021AH  24003.46003728  .00000693  00000-0  65873-4 0  9998,2 55659  70.0001  12.1734 0002713 263.5967  96.4883 14.98333914 50018,6950.181,96.107,573.931,570.16,0.0
55659.0,STARLINK-5477,PAYLOAD,2024-01-04 03:03:47,14.98328629,0.000279,70.0,10.4899,263.0302,97.054,0.00010065,1.108e-05,0.0,0 STARLINK-5477,1 55659U 23021AH  24004.12763808  .00001108  00000-0  10065-3 0  9998,2 55659  70.0000  10.4899 0002790 263.0302  97.0540 14.98328629 49813,6950.197,96.107,574.001,570.123,0.0
55659.0,STARLINK-5477,PAYLOAD,2024-01-04 09:28:20,14.98328487,0.0002886,69.9997,9.8161,267.6976,92.3853,9.2147e-05,1.007e-05,0.0,0 STARLINK-5477,1 55659U 23021AH  24004.39467869  .00001007  00000-0  92147-4 0  9995,2 55659  69.9997   9.8161 0002886 267.6976  92.3853 14.98328487 50158,6950.198,96.107,574.068,570.057,0.0
55659.0,STARLINK-5477,PAYLOAD,2024-01-05 04:41:57,14.9832979,0.0002931,69.9996,7.7957,266.4672,93.6151,-1.5822e-05,-2.82e-06,0.0,0 STARLINK-5477,1 55659U 23021AH  24005.19580025 -.00000282  00000-0 -15822-4 0  9995,2 55659  69.9996   7.7957 0002931 266.4672  93.6151 14.98329790 49979,6950.194,96.107,574.096,570.021,0.0
55659.0,STARLINK-5477,PAYLOAD,2024-01-05 09:30:21,14.98331523,0.0002893,69.9997,7.291,265.5002,94.5826,5.3981e-06,-2.9e-07,0.0,0 STARLINK-5477,1 55659U 23021AH  24005.39607857 -.00000029  00000-0  53981-5 0  9997,2 55659  69.9997   7.2910 0002893 265.5002  94.5826 14.98331523 50303,6950.188,96.107,574.064,570.042,0.0
55659.0,STARLINK-5477,PAYLOAD,2024-01-06 04:43:57,14.98331694,0.0002971,69.9996,5.2712,266.0285,94.0535,2.8567e-05,2.48e-06,0.0,0 STARLINK-5477,1 55659U 23021AH  24006.19719709  .00000248  00000-0  28567-4 0  9999,2 55659  69.9996   5.2712 0002971 266.0285  94.0535 14.98331694 50127,6950.188,96.107,574.118,569.988,0.0
55659.0,STARLINK-5477,PAYLOAD,2024-01-06 09:32:21,14.98332979,0.0002951,69.9997,4.7662,265.7466,94.3356,4.2468e-05,4.14e-06,0.0,0 STARLINK-5477,1 55659U 23021AH  24006.39747570  .00000414  00000-0  42468-4 0  9999,2 55659  69.9997   4.7662 0002951 265.7466  94.3356 14.98332979 50458,6950.184,96.107,574.1,569.998,0.0
55659.0,STARLINK-5477,PAYLOAD,2024-01-07 09:34:22,14.98330303,0.0002868,69.9999,2.2411,264.7796,95.3036,5.3758e-05,5.49e-06,0.0,0 STARLINK-5477,1 55659U 23021AH  24007.39887701  .00000549  00000-0  53758-4 0  9994,2 55659  69.9999   2.2411 0002868 264.7796  95.3036 14.98330303 50306,6950.192,96.107,574.05,570.064,0.0
55659.0,STARLINK-5477,PAYLOAD,2024-01-08 09:36:23,14.98334055,0.000281,70.0,359.7161,265.5745,94.5093,5.8065e-05,6e-06,0.0,0 STARLINK-5477,1 55659U 23021AH  24008.40027359  .00000600  00000-0  58065-4 0  9996,2 55659  70.0000 359.7161 0002810 265.5745  94.5093 14.98334055 50452,6950.18,96.107,573.998,570.092,0.0
55659.0,STARLINK-5477,PAYLOAD,2024-01-09 04:50:00,14.98329485,0.0002692,70.0004,357.6964,267.0777,93.0074,2.0822e-05,1.55e-06,0.0,0 STARLINK-5477,1 55659U 23021AH  24009.20139746  .00000155  00000-0  20822-4 0  9994,2 55659  70.0004 357.6964 0002692 267.0777  93.0074 14.98329485 50571,6950.194,96.107,573.93,570.188,0.0
55659.0,STARLINK-5477,PAYLOAD,2024-01-09 08:02:16,14.98329788,0.0002681,70.0004,357.3597,267.0875,92.9977,3.4501e-05,3.19e-06,0.0,0 STARLINK-5477,1 55659U 23021AH  24009.33491697  .00000319  00000-0  34501-4 0  9995,2 55659  70.0004 357.3597 0002681 267.0875  92.9977 14.98329788 50898,6950.194,96.107,573.922,570.195,0.0
55659.0,STARLINK-5477,PAYLOAD,2024-01-10 04:52:01,14.98333218,0.000258,70.0005,355.1723,256.4182,103.669,3.8063e-05,3.61e-06,0.0,0 STARLINK-5477,1 55659U 23021AH  24010.20279361  .00000361  00000-0  38063-4 0  9999,2 55659  70.0005 355.1723 0002580 256.4182 103.6690 14.98333218 50724,6950.183,96.107,573.841,570.255,0.0
55659.0,STARLINK-5477,PAYLOAD,2024-01-10 09:40:25,14.98333792,0.000265,70.0006,354.6673,258.4801,101.6061,4.4484e-05,4.38e-06,0.0,0 STARLINK-5477,1 55659U 23021AH  24010.40307263  .00000438  00000-0  44484-4 0  9993,2 55659  70.0006 354.6673 0002650 258.4801 101.6061 14.98333792 51055,6950.181,96.107,573.888,570.204,0.0
55659.0,STARLINK-5477,PAYLOAD,2024-01-11 08:06:18,14.98334737,0.0002945,69.9995,352.3092,266.4176,93.6646,7.739e-05,8.31e-06,0.0,0 STARLINK-5477,1 55659U 23021AH  24011.33771139  .00000831  00000-0  77390-4 0  9992,2 55659  69.9995 352.3092 0002945 266.4176  93.6646 14.98334737 50890,6950.178,96.107,574.09,569.996,0.0
55659.0,STARLINK-5477,PAYLOAD,2024-01-12 03:19:55,14.98328859,0.0002861,69.9999,350.2889,267.5045,92.5786,2.3236e-05,1.84e-06,0.0,0 STARLINK-5477,1 55659U 23021AH  24012.13883652  .00000184  00000-0  23236-4 0  9996,2 55659  69.9999 350.2889 0002861 267.5045  92.5786 14.98328859 51015,6950.196,96.107,574.05,570.073,0.0
55659.0,STARLINK-5477,PAYLOAD,2024-01-12 08:08:19,14.98332259,0.0002544,70.0003,349.7835,259.8018,100.2854,7.6493e-05,8.2e-06,0.0,0 STARLINK-5477,1 55659U 23021AH  24012.33911308  .00000820  00000-0  76493-4 0  9998,2 55659  70.0003 349.7835 0002544 259.8018 100.2854 14.98332259 51348,6950.186,96.107,573.819,570.283,0.0
55659.0,STARLINK-5477,PAYLOAD,2024-01-12 22:33:32,14.98304622,0.0002596,70.0006,348.2678,267.3301,92.7561,0.00043466,5.094e-05,0.0,0 STARLINK-5477,1 55659U 23021AH  24012.93995837  .00005094  00000-0  43466-3 0  9994,2 55659  70.0006 348.2678 0002596 267.3301  92.7561 14.98304622 51439,6950.271,96.109,573.941,570.332,0.0
55659.0,STARLINK-5477,PAYLOAD,2024-01-13 03:21:56,14.98312075,0.0002701,70.0003,347.7632,268.6971,91.3879,0.00028096,3.259e-05,0.0,0 STARLINK-5477,1 55659U 23021AH  24013.14024046  .00003259  00000-0  28096-3 0  9996,2 55659  70.0003 347.7632 0002701 268.6971  91.3879 14.98312075 51163,6950.248,96.108,573.991,570.236,0.0
55659.0,STARLINK-5477,PAYLOAD,2024-01-13 08:10:21,14.98287168,0.0002487,70.0005,347.258,270.4166,89.6708,0.00080433,9.506e-05,0.0,0 STARLINK-5477,1 55659U 23021AH  24013.34052684  .00009506  00000-0  80433-3 0  9991,2 55659  70.0005 347.2580 0002487 270.4166  89.6708 14.98287168 51198,6950.325,96.11,573.919,570.462,0.0
55659.0,STARLINK-5477,PAYLOAD,2024-01-14 03:23:58,14.98315808,0.0002768,70.0002,345.2387,270.4525,89.6317,-0.00011993,-1.523e-05,0.0,0 STARLINK-5477,1 55659U 23021AH  24014.14165447 -.00001523  00000-0 -11993-3 0  9990,2 55659  70.0002 345.2387 0002768 270.4525  89.6317 14.98315808 51312,6950.237,96.108,574.026,570.178,0.0
55659.0,STARLINK-5477,PAYLOAD,2024-01-14 08:12:23,14.98317508,0.0002739,70.0004,344.7336,270.855,89.2295,-9.2696e-05,-1.198e-05,0.0,0 STARLINK-5477,1 55659U 23021AH  24014.34193446 -.00001198  00000-0 -92696-4 0  9990,2 55659  70.0004 344.7336 0002739 270.8550  89.2295 14.98317508 51648,6950.232,96.108,574.0,570.193,0.0
55659.0,STARLINK-5477,PAYLOAD,2024-01-14 22:37:34,14.98327658,0.0003245,69.9991,343.2193,267.5774,92.5013,0.00011353,1.262e-05,0.0,0 STARLINK-5477,1 55659U 23021AH  24014.94276402  .00001262  00000-0  11353-3 0  9990,2 55659  69.9991 343.2193 0003245 267.5774  92.5013 14.98327658 51731,6950.2,96.107,574.32,569.81,0.0
55659.0,STARLINK-5477,PAYLOAD,2024-01-15 03:25:58,14.9833415,0.0002891,70.0,342.7147,265.1528,94.9301,0.00019621,2.249e-05,0.0,0 STARLINK-5477,1 55659U 23021AH  24015.14303934  .00002249  00000-0  19621-3 0  9996,2 55659  70.0000 342.7147 0002891 265.1528  94.9301 14.98334150 51466,6950.18,96.107,574.054,570.036,0.0
55659.0,STARLINK-5477,PAYLOAD,2024-01-15 08:14:21,14.98346234,0.0002809,69.9999,342.2085,266.5314,93.5523,0.00032055,3.735e-05,0.0,0 STARLINK-5477,1 55659U 23021AH  24015.34331013  .00003735  00000-0  32055-3 0  9994,2 55659  69.9999 342.2085 0002809 266.5314  93.5523 14.98346234 51493,6950.143,96.106,573.96,570.055,0.0
55659.0,STARLINK-5477,PAYLOAD,2024-01-16 00:15:43,14.98329167,0.0002239,70.0019,340.5272,236.5673,123.5272,0.00031344,3.649e-05,0.0,0 STARLINK-5477,1 55659U 23021AH  24016.01092006  .00003649  00000-0  31344-3 0  9999,2 55659  70.0019 340.5272 0002239 236.5673 123.5272 14.98329167 51592,6950.195,96.107,573.617,570.504,0.0
55659.0,STARLINK-5477,PAYLOAD,2024-01-16 08:16:24,14.98326654,0.0002284,70.0018,339.6857,238.4578,121.6359,0.0002362,2.726e-05,0.0,0 STARLINK-5477,1 55659U 23021AH  24016.34472395  .00002726  00000-0  23620-3 0  9991,2 55659  70.0018 339.6857 0002284 238.4578 121.6359 14.98326654 51946,6950.203,96.107,573.656,570.481,0.0
